KUIPER-00176            
1 65788U 25217AC  25356.58335648  .00013156  00000+0  15580-2 0  9990
2 65788  51.8990  24.2728 0002638  10.5111 349.3356 14.84823935  5871
KUIPER-00101            
1 65947U 25228A   25356.58335648 -.00049797  00000+0 -60619-2 0  9994
2 65947  51.8995 341.6423 0001231  53.2724 300.1610 14.83164768  5300
KUIPER-00113            
1 65948U 25228B   25356.58335648 -.01749712  00000+0 -15757+0 0  9990
2 65948  51.8916 337.6409 0006327  70.3978 325.1129 14.98783095  5774
KUIPER-00117            
1 65949U 25228C   25356.58335648 -.00042598  00000+0 -45909-2 0  9993
2 65949  51.8985 339.4056 0009760  53.7250 169.7888 14.88023869  2429
KUIPER-00121            
1 65950U 25228D   25356.58335648 -.00017995  00000+0 -10754-2 0  9998
2 65950  51.8870 335.5331 0006390  63.1970  50.4354 15.10107504  1302
KUIPER-00122            
1 65951U 25228E   25356.58335648 -.00025168  00000+0 -33523-2 0  9999
2 65951  51.8992 344.0241 0000831  99.2930 144.0870 14.79079583  4645
KUIPER-00123            
1 65952U 25228F   25356.58335648 -.00027218  00000+0 -36297-2 0  9999
2 65952  51.8993 344.0534 0001224 147.8273 272.7920 14.79069586  5186
KUIPER-00124            
1 65953U 25228G   25356.58335648 -.00038886  00000+0 -36107-2 0  9993
2 65953  51.8958 336.9277 0004439  74.0046  90.5601 14.93948393  4934
